{
    "links": {
        "self": "http://www.neowsapp.com/rest/v1/neo/3713309?api_key=iIulBulltgU6a56xZRHN4H3l9WmuAYTsLGpBGhQ2"
    },
    "id": "3713309",
    "neo_reference_id": "3713309",
    "name": "(2015 FM)",
    "designation": "2015 FM",
    "nasa_jpl_url": "http://ssd.jpl.nasa.gov/sbdb.cgi?sstr=3713309",
    "absolute_magnitude_h": 26.2,
    "estimated_diameter": {
        "kilometers": {
            "estimated_diameter_min": 0.0152951935,
            "estimated_diameter_max": 0.0342010925
        },
        "meters": {
            "estimated_diameter_min": 15.2951935344,
            "estimated_diameter_max": 34.201092472
        },
        "miles": {
            "estimated_diameter_min": 0.0095039897,
            "estimated_diameter_max": 0.021251567
        },
        "feet": {
            "estimated_diameter_min": 50.1810827555,
            "estimated_diameter_max": 112.2083122258
        }
    },
    "is_potentially_hazardous_asteroid": false,
    "close_approach_data": [
        {
            "close_approach_date": "2012-02-27",
            "close_approach_date_full": "2012-Feb-27 18:50",
            "epoch_date_close_approach": 1330368600000,
            "relative_velocity": {
                "kilometers_per_second": "26.3602460372",
                "kilometers_per_hour": "94896.8857339096",
                "miles_per_hour": "58965.2343606062"
            },
            "miss_distance": {
                "astronomical": "0.3925843318",
                "lunar": "152.7153050702",
                "kilometers": "58729779.832653266",
                "miles": "36492992.9854404308"
            },
            "orbiting_body": "Earth"
        },
        {
            "close_approach_date": "2015-03-23",
            "close_approach_date_full": "2015-Mar-23 02:50",
            "epoch_date_close_approach": 1427079000000,
            "relative_velocity": {
                "kilometers_per_second": "15.0523579501",
                "kilometers_per_hour": "54188.4886202293",
                "miles_per_hour": "33670.6194984975"
            },
            "miss_distance": {
                "astronomical": "0.0156312576",
                "lunar": "6.0805592064",
                "kilometers": "2338402.842381312",
                "miles": "1453016.1490016256"
            },
            "orbiting_body": "Earth"
        }
    ],
    "orbital_data": {
        "orbit_id": "8",
        "orbit_determination_date": "2017-04-06 08:35:03",
        "first_observation_date": "2015-03-17",
        "last_observation_date": "2015-03-23",
        "data_arc_in_days": 6,
        "observations_used": 55,
        "orbit_uncertainty": "8",
        "minimum_orbit_intersection": ".0113257",
        "jupiter_tisserand_invariant": "3.472",
        "epoch_osculation": "2457100.5",
        "eccentricity": ".6059038837466865",
        "semi_major_axis": "2.109864197241366",
        "inclination": "6.860145531568848",
        "ascending_node_longitude": "177.7201121117376",
        "orbital_period": "1119.386798392441",
        "perihelion_distance": ".8314892859547375",
        "perihelion_argument": "61.63774264548633",
        "aphelion_distance": "3.388239108527995",
        "perihelion_time": "2457143.898132091804",
        "mean_anomaly": "346.0429588990274",
        "mean_motion": ".3216046504362911",
        "equinox": "J2000",
        "orbit_class": {
            "orbit_class_type": "APO",
            "orbit_class_description": "Near-Earth asteroid orbits which cross the Earth’s orbit similar to that of 1862 Apollo",
            "orbit_class_range": "a (semi-major axis) > 1.0 AU; q (perihelion) < 1.017 AU"
        }
    },
    "is_sentry_object": false
}